******************************************************************************* Revised: July 31, 2013              Mercury                            199 / 1 PHYSICAL DATA (updated 2018-Aug-15):  Vol. Mean Radius (km) =  2440+-1        Density (g cm^-3)     = 5.427  Mass x10^23 (kg)      =     3.302       Volume (x10^10 km^3)  = 6.085    Sidereal rot. period  =    58.6463 d    Sid. rot. rate (rad/s)= 0.00000124001  Mean solar day        =   175.9421 d    Core radius (km)      = ~1600   Geometric Albedo      =     0.106       Surface emissivity    = 0.77+-0.06  GM (km^3/s^2)         = 22031.78        Equatorial radius, Re = 2440 km  GM 1-sigma (km^3/s^2) =   +-0.91        Mass ratio (Sun/plnt) = 6023682  Mom. of Inertia       =     0.33        Equ. gravity  m/s^2   = 3.701       Atmos. pressure (bar) = < 5x10^-15      Max. angular diam.    = 11.0"     Mean Temperature (K)  = 440             Visual mag. V(1,0)    = -0.42   Obliquity to orbit[1] =  2.11' +/- 0.1' Hill's sphere rad. Rp = 94.4   Sidereal orb. per.    =  0.2408467 y    Mean Orbit vel.  km/s = 47.362   Sidereal orb. per.    = 87.969257  d    Escape vel. km/s      =  4.435                                 Perihelion  Aphelion    Mean  Solar Constant (W/m^2)         14462       6278        9126  Maximum Planetary IR (W/m^2)   12700       5500        8000  Minimum Planetary IR (W/m^2)   6           6           6*******************************************************************************  *******************************************************************************Ephemeris / WWW_USER Fri Jan 22 19:07:51 2021 Pasadena, USA      / Horizons*******************************************************************************Target body name: Mercury (199)                   {source: DE431mx}Center body name: Sun (10)                        {source: DE431mx}Center-site name: BODY CENTER*******************************************************************************Start time      : A.D. 2021-Jan-23 00:00:00.0000 TDBStop  time      : A.D. 2021-Jan-24 00:00:00.0000 TDBStep-size       : 1440 minutes*******************************************************************************Center geodetic : 0.00000000,0.00000000,0.0000000 {E-lon(deg),Lat(deg),Alt(km)}Center cylindric: 0.00000000,0.00000000,0.0000000 {E-lon(deg),Dxy(km),Dz(km)}Center radii    : 696000.0 x 696000.0 x 696000.0 k{Equator, meridian, pole}    Output units    : AU-DOutput type     : GEOMETRIC cartesian statesOutput format   : 2 (position and velocity)Reference frame : Ecliptic of J2000.0*******************************************************************************JDTDB   X     Y     Z   VX    VY    VZ*******************************************************************************$$SOE2459237.500000000 = A.D. 2021-Jan-23 00:00:00.0000 TDB  X = 2.447882856082648E-01 Y = 2.042455772912898E-01 Z =-5.764477035179296E-03 VX=-2.356412434584445E-02 VY= 2.280708243171999E-02 VZ= 4.025266029190913E-032459238.500000000 = A.D. 2021-Jan-24 00:00:00.0000 TDB  X = 2.201320926910977E-01 Y = 2.260758374222532E-01 Z =-1.718856817169514E-03 VX=-2.572139924047710E-02 VY= 2.080927002639260E-02 VZ= 4.059901078572277E-03$$EOE*******************************************************************************Coordinate system description:  Ecliptic at the standard reference epoch    Reference epoch: J2000.0    X-Y plane: adopted Earth orbital plane at the reference epoch               Note: obliquity of 84381.448 arcseconds (IAU76) wrt ICRF equator    X-axis   : ICRF    Z-axis   : perpendicular to the X-Y plane in the directional (+ or -) sense               of Earth's north pole at the reference epoch.  Symbol meaning [1 au= 149597870.700 km, 1 day= 86400.0 s]:    JDTDB    Julian Day Number, Barycentric Dynamical Time      X      X-component of position vector (au)      Y      Y-component of position vector (au)      Z      Z-component of position vector (au)      VX     X-component of velocity vector (au/day)                                 VY     Y-component of velocity vector (au/day)                                 VZ     Z-component of velocity vector (au/day)                           Geometric states/elements have no aberrations applied. Computations by ...     Solar System Dynamics Group, Horizons On-Line Ephemeris System     4800 Oak Grove Drive, Jet Propulsion Laboratory     Pasadena, CA  91109   USA     Information  : https://ssd.jpl.nasa.gov/     Documentation: https://ssd.jpl.nasa.gov/?horizons_doc     Connect      : https://ssd.jpl.nasa.gov/?horizons (browser)                    telnet ssd.jpl.nasa.gov 6775       (command-line)                    e-mail command interface available                    Script and CGI interfaces available     Author       : Jon.D.Giorgini@jpl.nasa.gov*******************************************************************************